[{"OBJECT_NAME":"STARLINK-5607","OBJECT_ID":"2023-014P","EPOCH":"2026-03-09T23:07:47.129088","MEAN_MOTION":14.98339315,"ECCENTRICITY":0.00036319,"INCLINATION":69.9998,"RA_OF_ASC_NODE":63.8818,"ARG_OF_PERICENTER":270.1133,"MEAN_ANOMALY":89.961,"EPHEMERIS_TYPE":0,"CLASSIFICATION_TYPE":"U","NORAD_CAT_ID":55404,"ELEMENT_SET_NO":999,"REV_AT_EPOCH":17209,"BSTAR":-2.5546071e-5,"MEAN_MOTION_DOT":-3.98e-6,"MEAN_MOTION_DDOT":0},{"OBJECT_NAME":"AISSAT 1","OBJECT_ID":"2010-035C","EPOCH":"2026-03-09T18:13:55.092288","MEAN_MOTION":14.96891223,"ECCENTRICITY":0.00096674,"INCLINATION":98.1015,"RA_OF_ASC_NODE":324.4785,"ARG_OF_PERICENTER":31.9143,"MEAN_ANOMALY":328.2662,"EPHEMERIS_TYPE":0,"CLASSIFICATION_TYPE":"U","NORAD_CAT_ID":36797,"ELEMENT_SET_NO":999,"REV_AT_EPOCH":84934,"BSTAR":0.00027660201,"MEAN_MOTION_DOT":3.114e-5,"MEAN_MOTION_DDOT":0}]
